CCSDS_OMM_VERS = 2.0
CREATION_DATE  = 
ORIGINATOR     = 

OBJECT_NAME    = SL-3 R/B
OBJECT_ID      = 1982-079B
CENTER_NAME    = EARTH
REF_FRAME      = TEME
TIME_SYSTEM    = UTC
MEAN_ELEMENT_THEORY = SGP/SGP4

EPOCH          = 2026-03-25T14:41:25.359648
MEAN_MOTION    = 15.25012072
ECCENTRICITY   = .00255336
INCLINATION    = 81.1481
RA_OF_ASC_NODE = 174.2777
ARG_OF_PERICENTER = 112.3283
MEAN_ANOMALY   = 248.0661

EPHEMERIS_TYPE = 0
CLASSIFICATION_TYPE = U
NORAD_CAT_ID   = 13403
ELEMENT_SET_NO = 999
REV_AT_EPOCH   = 38012
BSTAR          = .21539081E-3
MEAN_MOTION_DOT = .5452E-4
MEAN_MOTION_DDOT = 0

CCSDS_OMM_VERS = 2.0
CREATION_DATE  = 
ORIGINATOR     = 

OBJECT_NAME    = SL-14 R/B
OBJECT_ID      = 1982-092B
CENTER_NAME    = EARTH
REF_FRAME      = TEME
TIME_SYSTEM    = UTC
MEAN_ELEMENT_THEORY = SGP/SGP4

EPOCH          = 2026-03-25T04:36:37.821024
MEAN_MOTION    = 14.86679922
ECCENTRICITY   = .0018867
INCLINATION    = 82.5664
RA_OF_ASC_NODE = 126.8978
ARG_OF_PERICENTER = 248.0519
MEAN_ANOMALY   = 177.8246

EPHEMERIS_TYPE = 0
CLASSIFICATION_TYPE = U
NORAD_CAT_ID   = 13553
ELEMENT_SET_NO = 999
REV_AT_EPOCH   = 33123
BSTAR          = .44934977E-4
MEAN_MOTION_DOT = .425E-5
MEAN_MOTION_DDOT = 0

CCSDS_OMM_VERS = 2.0
CREATION_DATE  = 
ORIGINATOR     = 

OBJECT_NAME    = SL-3 R/B
OBJECT_ID      = 1983-010B
CENTER_NAME    = EARTH
REF_FRAME      = TEME
TIME_SYSTEM    = UTC
MEAN_ELEMENT_THEORY = SGP/SGP4

EPOCH          = 2026-03-25T03:48:53.132256
MEAN_MOTION    = 15.46876068
ECCENTRICITY   = .00163955
INCLINATION    = 81.1050
RA_OF_ASC_NODE = 343.2767
ARG_OF_PERICENTER = 359.1120
MEAN_ANOMALY   = 1.0093

EPHEMERIS_TYPE = 0
CLASSIFICATION_TYPE = U
NORAD_CAT_ID   = 13819
ELEMENT_SET_NO = 999
REV_AT_EPOCH   = 36033
BSTAR          = .27048244E-3
MEAN_MOTION_DOT = .13701E-3
MEAN_MOTION_DDOT = 0

CCSDS_OMM_VERS = 2.0
CREATION_DATE  = 
ORIGINATOR     = 

OBJECT_NAME    = SL-3 R/B
OBJECT_ID      = 1983-075B
CENTER_NAME    = EARTH
REF_FRAME      = TEME
TIME_SYSTEM    = UTC
MEAN_ELEMENT_THEORY = SGP/SGP4

EPOCH          = 2026-03-25T13:20:31.532064
MEAN_MOTION    = 15.38783472
ECCENTRICITY   = .00218804
INCLINATION    = 97.6147
RA_OF_ASC_NODE = 89.7387
ARG_OF_PERICENTER = 167.7665
MEAN_ANOMALY   = 192.4115

EPHEMERIS_TYPE = 0
CLASSIFICATION_TYPE = U
NORAD_CAT_ID   = 14208
ELEMENT_SET_NO = 999
REV_AT_EPOCH   = 33259
BSTAR          = .30057961E-3
MEAN_MOTION_DOT = .11534E-3
MEAN_MOTION_DDOT = 0

CCSDS_OMM_VERS = 2.0
CREATION_DATE  = 
ORIGINATOR     = 

OBJECT_NAME    = COSMOS 1536
OBJECT_ID      = 1984-013A
CENTER_NAME    = EARTH
REF_FRAME      = TEME
TIME_SYSTEM    = UTC
MEAN_ELEMENT_THEORY = SGP/SGP4

EPOCH          = 2026-03-25T11:29:26.464992
MEAN_MOTION    = 15.24033367
ECCENTRICITY   = .00130332
INCLINATION    = 82.5422
RA_OF_ASC_NODE = 92.1488
ARG_OF_PERICENTER = 220.8522
MEAN_ANOMALY   = 139.1739

EPHEMERIS_TYPE = 0
CLASSIFICATION_TYPE = U
NORAD_CAT_ID   = 14699
ELEMENT_SET_NO = 999
REV_AT_EPOCH   = 27502
BSTAR          = .26388111E-3
MEAN_MOTION_DOT = .6443E-4
MEAN_MOTION_DDOT = 0

CCSDS_OMM_VERS = 2.0
CREATION_DATE  = 
ORIGINATOR     = 

OBJECT_NAME    = SL-14 R/B
OBJECT_ID      = 1984-027B
CENTER_NAME    = EARTH
REF_FRAME      = TEME
TIME_SYSTEM    = UTC
MEAN_ELEMENT_THEORY = SGP/SGP4

EPOCH          = 2026-03-25T15:38:54.946176
MEAN_MOTION    = 14.85992360
ECCENTRICITY   = .00164905
INCLINATION    = 82.5409
RA_OF_ASC_NODE = 230.0399
ARG_OF_PERICENTER = 281.5821
MEAN_ANOMALY   = 78.3544

EPHEMERIS_TYPE = 0
CLASSIFICATION_TYPE = U
NORAD_CAT_ID   = 14820
ELEMENT_SET_NO = 999
REV_AT_EPOCH   = 25000
BSTAR          = .56046771E-4
MEAN_MOTION_DOT = .515E-5
MEAN_MOTION_DDOT = 0

CCSDS_OMM_VERS = 2.0
CREATION_DATE  = 
ORIGINATOR     = 

OBJECT_NAME    = SL-8 R/B
OBJECT_ID      = 1985-006B
CENTER_NAME    = EARTH
REF_FRAME      = TEME
TIME_SYSTEM    = UTC
MEAN_ELEMENT_THEORY = SGP/SGP4

EPOCH          = 2026-03-25T10:50:01.740192
MEAN_MOTION    = 14.37794350
ECCENTRICITY   = .00178109
INCLINATION    = 74.0444
RA_OF_ASC_NODE = 232.1428
ARG_OF_PERICENTER = 145.5024
MEAN_ANOMALY   = 270.1591

EPHEMERIS_TYPE = 0
CLASSIFICATION_TYPE = U
NORAD_CAT_ID   = 15483
ELEMENT_SET_NO = 999
REV_AT_EPOCH   = 15629
BSTAR          = .11624805E-3
MEAN_MOTION_DOT = .325E-5
MEAN_MOTION_DDOT = 0

CCSDS_OMM_VERS = 2.0
CREATION_DATE  = 
ORIGINATOR     = 

OBJECT_NAME    = SL-12 R/B(2)
OBJECT_ID      = 1985-042D
CENTER_NAME    = EARTH
REF_FRAME      = TEME
TIME_SYSTEM    = UTC
MEAN_ELEMENT_THEORY = SGP/SGP4

EPOCH          = 2026-03-25T09:38:24.622368
MEAN_MOTION    = 14.21986705
ECCENTRICITY   = .00328583
INCLINATION    = 71.1078
RA_OF_ASC_NODE = 54.5308
ARG_OF_PERICENTER = 102.0861
MEAN_ANOMALY   = 63.5395

EPHEMERIS_TYPE = 0
CLASSIFICATION_TYPE = U
NORAD_CAT_ID   = 15772
ELEMENT_SET_NO = 999
REV_AT_EPOCH   = 11662
BSTAR          = .89509771E-4
MEAN_MOTION_DOT = .151E-5
MEAN_MOTION_DDOT = 0

CCSDS_OMM_VERS = 2.0
CREATION_DATE  = 
ORIGINATOR     = 

OBJECT_NAME    = SL-14 R/B
OBJECT_ID      = 1985-069B
CENTER_NAME    = EARTH
REF_FRAME      = TEME
TIME_SYSTEM    = UTC
MEAN_ELEMENT_THEORY = SGP/SGP4

EPOCH          = 2026-03-25T11:56:08.574144
MEAN_MOTION    = 14.86449881
ECCENTRICITY   = .00198172
INCLINATION    = 82.5304
RA_OF_ASC_NODE = 10.0725
ARG_OF_PERICENTER = 136.5027
MEAN_ANOMALY   = 223.7757

EPHEMERIS_TYPE = 0
CLASSIFICATION_TYPE = U
NORAD_CAT_ID   = 15945
ELEMENT_SET_NO = 999
REV_AT_EPOCH   = 17518
BSTAR          = .54546168E-4
MEAN_MOTION_DOT = .508E-5
MEAN_MOTION_DDOT = 0

CCSDS_OMM_VERS = 2.0
CREATION_DATE  = 
ORIGINATOR     = 

OBJECT_NAME    = SL-16 R/B
OBJECT_ID      = 1985-097B
CENTER_NAME    = EARTH
REF_FRAME      = TEME
TIME_SYSTEM    = UTC
MEAN_ELEMENT_THEORY = SGP/SGP4

EPOCH          = 2026-03-25T09:17:10.970592
MEAN_MOTION    = 14.16603118
ECCENTRICITY   = .00095195
INCLINATION    = 71.0009
RA_OF_ASC_NODE = 107.5060
ARG_OF_PERICENTER = 241.3156
MEAN_ANOMALY   = 214.2740

EPHEMERIS_TYPE = 0
CLASSIFICATION_TYPE = U
NORAD_CAT_ID   = 16182
ELEMENT_SET_NO = 999
REV_AT_EPOCH   = 8945
BSTAR          = .75684939E-4
MEAN_MOTION_DOT = .103E-5
MEAN_MOTION_DDOT = 0

CCSDS_OMM_VERS = 2.0
CREATION_DATE  = 
ORIGINATOR     = 

OBJECT_NAME    = SL-14 R/B
OBJECT_ID      = 1986-006B
CENTER_NAME    = EARTH
REF_FRAME      = TEME
TIME_SYSTEM    = UTC
MEAN_ELEMENT_THEORY = SGP/SGP4

EPOCH          = 2026-03-25T09:40:21.296928
MEAN_MOTION    = 14.86838000
ECCENTRICITY   = .00755522
INCLINATION    = 82.5245
RA_OF_ASC_NODE = 244.9443
ARG_OF_PERICENTER = 219.7679
MEAN_ANOMALY   = 139.7986

EPHEMERIS_TYPE = 0
CLASSIFICATION_TYPE = U
NORAD_CAT_ID   = 16496
ELEMENT_SET_NO = 999
REV_AT_EPOCH   = 15154
BSTAR          = .87224118E-4
MEAN_MOTION_DOT = .845E-5
MEAN_MOTION_DDOT = 0

CCSDS_OMM_VERS = 2.0
CREATION_DATE  = 
ORIGINATOR     = 

OBJECT_NAME    = COSMOS 1743
OBJECT_ID      = 1986-034A
CENTER_NAME    = EARTH
REF_FRAME      = TEME
TIME_SYSTEM    = UTC
MEAN_ELEMENT_THEORY = SGP/SGP4

EPOCH          = 2026-03-25T08:47:10.150944
MEAN_MOTION    = 15.59802629
ECCENTRICITY   = .00035784
INCLINATION    = 82.5306
RA_OF_ASC_NODE = 57.3612
ARG_OF_PERICENTER = 182.1706
MEAN_ANOMALY   = 177.9536

EPHEMERIS_TYPE = 0
CLASSIFICATION_TYPE = U
NORAD_CAT_ID   = 16719
ELEMENT_SET_NO = 999
REV_AT_EPOCH   = 18269
BSTAR          = .50875442E-3
MEAN_MOTION_DOT = .4095E-3
MEAN_MOTION_DDOT = 0

